{
  "norad_id": 55061,
  "name": "SKYKRAFT-1C",
  "history": [
    {
      "epoch": "2026-03-28T21:02:48.824736Z",
      "apogee_km": 500.7490688149501,
      "perigee_km": 483.9570414809641,
      "latitude_deg": -3.530859740469218e-05,
      "longitude_deg": 1.3076669040927718,
      "height_km": 493.0383776808877,
      "semi_major_axis_km": 6870.490055147957,
      "eccentricity": 0.00122204,
      "inclination_deg": 97.3291,
      "raan_deg": 143.3022,
      "arg_perigee_deg": 73.4903,
      "mean_anomaly_deg": 286.7676,
      "mean_motion_rev_day": 15.24478097
    },
    {
      "epoch": "2026-03-29T03:20:53.422944Z",
      "apogee_km": 500.73002688144516,
      "perigee_km": 483.9619261289863,
      "latitude_deg": -4.523252229735136e-05,
      "longitude_deg": -93.21337526600857,
      "height_km": 492.91774980568493,
      "semi_major_axis_km": 6870.482976505215,
      "eccentricity": 0.0012203,
      "inclination_deg": 97.3291,
      "raan_deg": 143.5591,
      "arg_perigee_deg": 72.6535,
      "mean_anomaly_deg": 287.6036,
      "mean_motion_rev_day": 15.24480453
    },
    {
      "epoch": "2026-03-30T01:24:09.164160Z",
      "apogee_km": 500.6799201840431,
      "perigee_km": 483.94789885703176,
      "latitude_deg": -4.245876198239286e-05,
      "longitude_deg": -64.03580441318798,
      "height_km": 492.50277144913053,
      "semi_major_axis_km": 6870.450909520537,
      "eccentricity": 0.00121768,
      "inclination_deg": 97.3288,
      "raan_deg": 144.458,
      "arg_perigee_deg": 69.8405,
      "mean_anomaly_deg": 290.4141,
      "mean_motion_rev_day": 15.24491126
    },
    {
      "epoch": "2026-03-30T09:16:44.678208Z",
      "apogee_km": 500.6650779344127,
      "perigee_km": 483.9450327397035,
      "latitude_deg": -6.79170023616219e-06,
      "longitude_deg": 177.8138385423179,
      "height_km": 492.3629623759705,
      "semi_major_axis_km": 6870.442055337057,
      "eccentricity": 0.00121681,
      "inclination_deg": 97.3288,
      "raan_deg": 144.7791,
      "arg_perigee_deg": 68.8647,
      "mean_anomaly_deg": 291.389,
      "mean_motion_rev_day": 15.24494073
    },
    {
      "epoch": "2026-03-30T21:52:53.381280Z",
      "apogee_km": 500.6385082629704,
      "perigee_km": 483.9402118119542,
      "latitude_deg": 3.7573267995565755e-06,
      "longitude_deg": -11.226287896814936,
      "height_km": 492.13794442529803,
      "semi_major_axis_km": 6870.4263600374625,
      "eccentricity": 0.00121523,
      "inclination_deg": 97.3286,
      "raan_deg": 145.2928,
      "arg_perigee_deg": 67.2843,
      "mean_anomaly_deg": 292.9678,
      "mean_motion_rev_day": 15.24499297
    },
    {
      "epoch": "2026-03-31T13:38:04.043040Z",
      "apogee_km": 500.60034083416303,
      "perigee_km": 483.939603926141,
      "latitude_deg": 8.66777250059805e-06,
      "longitude_deg": 112.47443723023667,
      "height_km": 491.8657422357949,
      "semi_major_axis_km": 6870.406972380151,
      "eccentricity": 0.0012125,
      "inclination_deg": 97.3284,
      "raan_deg": 145.9349,
      "arg_perigee_deg": 65.3268,
      "mean_anomaly_deg": 294.9231,
      "mean_motion_rev_day": 15.2450575
    },
    {
      "epoch": "2026-04-01T10:06:47.551680Z",
      "apogee_km": 500.5515062428958,
      "perigee_km": 483.9581359166241,
      "latitude_deg": -1.6968411464987488e-06,
      "longitude_deg": 165.28682120545292,
      "height_km": 491.52487705276496,
      "semi_major_axis_km": 6870.391821079759,
      "eccentricity": 0.0012076,
      "inclination_deg": 97.3281,
      "raan_deg": 146.7696,
      "arg_perigee_deg": 62.7102,
      "mean_anomaly_deg": 297.5364,
      "mean_motion_rev_day": 15.24510793
    },
    {
      "epoch": "2026-04-02T20:46:09.410016Z",
      "apogee_km": 500.4176927038243,
      "perigee_km": 483.9742377848079,
      "latitude_deg": -5.688465886964144e-06,
      "longitude_deg": 5.434972340211909,
      "height_km": 490.91530181457625,
      "semi_major_axis_km": 6870.332965244316,
      "eccentricity": 0.0011967,
      "inclination_deg": 97.3274,
      "raan_deg": 148.1821,
      "arg_perigee_deg": 58.0045,
      "mean_anomaly_deg": 302.2354,
      "mean_motion_rev_day": 15.24530383
    },
    {
      "epoch": "2026-04-02T20:46:09.410880Z",
      "apogee_km": 500.41748659383484,
      "perigee_km": 483.97444389479733,
      "latitude_deg": -2.779894417291183e-06,
      "longitude_deg": 5.435068358408979,
      "height_km": 490.91541104651736,
      "semi_major_axis_km": 6870.332965244316,
      "eccentricity": 0.00119667,
      "inclination_deg": 97.3274,
      "raan_deg": 148.1822,
      "arg_perigee_deg": 58.0045,
      "mean_anomaly_deg": 302.2354,
      "mean_motion_rev_day": 15.24530383
    },
    {
      "epoch": "2026-04-03T20:23:53.541600Z",
      "apogee_km": 500.3586140325506,
      "perigee_km": 483.95921768140033,
      "latitude_deg": 7.19930194011641e-05,
      "longitude_deg": 10.993975350773345,
      "height_km": 490.5495828533692,
      "semi_major_axis_km": 6870.295915856975,
      "eccentricity": 0.0011935,
      "inclination_deg": 97.3272,
      "raan_deg": 149.1454,
      "arg_perigee_deg": 55.1469,
      "mean_anomaly_deg": 305.089,
      "mean_motion_rev_day": 15.24542715
    },
    {
      "epoch": "2026-04-04T02:41:57.162624Z",
      "apogee_km": 500.3338518785695,
      "perigee_km": 483.960041554039,
      "latitude_deg": 8.570947442974381e-05,
      "longitude_deg": -83.52308723598918,
      "height_km": 490.44889103338454,
      "semi_major_axis_km": 6870.283946716304,
      "eccentricity": 0.00119164,
      "inclination_deg": 97.3271,
      "raan_deg": 149.4022,
      "arg_perigee_deg": 54.3211,
      "mean_anomaly_deg": 305.9135,
      "mean_motion_rev_day": 15.24546699
    },
    {
      "epoch": "2026-04-05T02:19:40.400832Z",
      "apogee_km": 500.25166982700284,
      "perigee_km": 483.98990704692824,
      "latitude_deg": 8.5716688364334e-06,
      "longitude_deg": -77.96063288371585,
      "height_km": 490.10514662866944,
      "semi_major_axis_km": 6870.257788436965,
      "eccentricity": 0.00118349,
      "inclination_deg": 97.3268,
      "raan_deg": 150.3652,
      "arg_perigee_deg": 51.2097,
      "mean_anomaly_deg": 309.0196,
      "mean_motion_rev_day": 15.24555406
    },
    {
      "epoch": "2026-04-05T16:30:18.051552Z",
      "apogee_km": 500.1929466924703,
      "perigee_km": 484.012158498198,
      "latitude_deg": -1.1910943760184104e-05,
      "longitude_deg": 69.37805683414277,
      "height_km": 489.9075784043649,
      "semi_major_axis_km": 6870.239552595334,
      "eccentricity": 0.0011776,
      "inclination_deg": 97.3267,
      "raan_deg": 150.943,
      "arg_perigee_deg": 49.3173,
      "mean_anomaly_deg": 310.9086,
      "mean_motion_rev_day": 15.24561476
    },
    {
      "epoch": "2026-04-06T03:31:53.874048Z",
      "apogee_km": 500.15382392272477,
      "perigee_km": 484.0266525037423,
      "latitude_deg": -2.084028605337055e-05,
      "longitude_deg": -96.02455043231204,
      "height_km": 489.753839180364,
      "semi_major_axis_km": 6870.227238213233,
      "eccentricity": 0.0011737,
      "inclination_deg": 97.3267,
      "raan_deg": 151.3925,
      "arg_perigee_deg": 47.8054,
      "mean_anomaly_deg": 312.4178,
      "mean_motion_rev_day": 15.24565575
    },
    {
      "epoch": "2026-04-07T11:02:10.034304Z",
      "apogee_km": 500.0470491274082,
      "perigee_km": 484.0753497573096,
      "latitude_deg": 1.3571807506808435e-05,
      "longitude_deg": 151.3984639161853,
      "height_km": 489.36840251943784,
      "semi_major_axis_km": 6870.198199442359,
      "eccentricity": 0.00116239,
      "inclination_deg": 97.3267,
      "raan_deg": 152.6767,
      "arg_perigee_deg": 43.695,
      "mean_anomaly_deg": 316.5206,
      "mean_motion_rev_day": 15.24575241
    },
    {
      "epoch": "2026-04-07T17:20:13.229376Z",
      "apogee_km": 500.0371364135917,
      "perigee_km": 484.0804196994786,
      "latitude_deg": -1.3516770585073392e-05,
      "longitude_deg": 56.88318555458352,
      "height_km": 489.2935111186241,
      "semi_major_axis_km": 6870.195778056535,
      "eccentricity": 0.0011613,
      "inclination_deg": 97.3266,
      "raan_deg": 152.9335,
      "arg_perigee_deg": 42.8758,
      "mean_anomaly_deg": 317.3383,
      "mean_motion_rev_day": 15.24576047
    },
    {
      "epoch": "2026-04-08T13:48:53.299296Z",
      "apogee_km": 499.9732792224231,
      "perigee_km": 484.1111346622665,
      "latitude_deg": 1.2839742107074944e-05,
      "longitude_deg": 109.70992834539095,
      "height_km": 489.06900337239466,
      "semi_major_axis_km": 6870.1792069423445,
      "eccentricity": 0.00115442,
      "inclination_deg": 97.3266,
      "raan_deg": 153.7682,
      "arg_perigee_deg": 40.2214,
      "mean_anomaly_deg": 319.9876,
      "mean_motion_rev_day": 15.24581563
    },
    {
      "epoch": "2026-04-09T13:26:34.598688Z",
      "apogee_km": 499.8831263951515,
      "perigee_km": 484.1573364923761,
      "latitude_deg": 3.526133620879273e-05,
      "longitude_deg": 115.2805685622803,
      "height_km": 488.82801205051163,
      "semi_major_axis_km": 6870.1572314437635,
      "eccentricity": 0.0011445,
      "inclination_deg": 97.3265,
      "raan_deg": 154.7313,
      "arg_perigee_deg": 37.0414,
      "mean_anomaly_deg": 323.1612,
      "mean_motion_rev_day": 15.24588878
    },
    {
      "epoch": "2026-04-10T03:37:11.172000Z",
      "apogee_km": 499.828894702081,
      "perigee_km": 484.1855762778705,
      "latitude_deg": 2.387565525529631e-05,
      "longitude_deg": -97.37624197335296,
      "height_km": 488.6885143422875,
      "semi_major_axis_km": 6870.1442354899755,
      "eccentricity": 0.0011385,
      "inclination_deg": 97.3264,
      "raan_deg": 155.3091,
      "arg_perigee_deg": 35.0462,
      "mean_anomaly_deg": 325.1523,
      "mean_motion_rev_day": 15.24593204
    }
  ]
}